0 IRIDIUM 116
1 43072U 17083C   24002.41044556  .00000327  00000-0  10954-3 0  9996
2 43072  86.3972 336.8057 0002016  91.0797 269.0629 14.34216918315638
0 IRIDIUM 130
1 43073U 17083D   24002.44850931  .00000395  00000-0  13402-3 0  9998
2 43073  86.3980 336.9789 0002238  82.6973 277.4478 14.34217067315584
0 IRIDIUM 151
1 43074U 17083E   24002.42313553 -.00000206  00000-0 -80623-4 0  9994
2 43074  86.3970 336.8385 0002239  96.6175 263.5276 14.34219488315609
0 IRIDIUM 134
1 43075U 17083F   24002.46119327  .00000358  00000-0  12062-3 0  9999
2 43075  86.3978 336.8182 0002223  81.6364 278.5084 14.34218175315571
0 IRIDIUM 137
1 43076U 17083G   24002.47386783  .00000382  00000-0  12927-3 0  9990
2 43076  86.3982 336.8880 0001776  91.2577 268.8823 14.34216545315647
0 IRIDIUM 141
1 43077U 17083H   24002.53730300  .00000362  00000-0  12237-3 0  9998
2 43077  86.3975 336.7426 0002325  89.1681 270.9781 14.34219135315654
0 IRIDIUM 153
1 43078U 17083J   24002.83832721  .00000314  00000-0  10491-3 0  9999
2 43078  86.3975 305.0692 0002568  88.0178 272.1312 14.34217641316809
0 IRIDIUM 131
1 43079U 17083K   24002.45484788  .00000391  00000-0  13249-3 0  9993
2 43079  86.3985 336.9040 0002692  77.3379 282.8118 14.34212543315574
